BEIJING 1               
1 28890U 05043A   21169.49067299  .00000025  00000-0  14474-4 0  9995
2 28890  98.0770 294.5804 0014229 231.5043 128.4880 14.61335382833986
HJ-1A                   
1 33320U 08041A   21169.46220648  .00000126  00000-0  24500-4 0  9999
2 33320  97.7220 213.6299 0020634 339.0474  20.9890 14.77644449688636
HJ-1B                   
1 33321U 08041B   21169.42387427  .00000146  00000-0  27377-4 0  9992
2 33321  97.7429 216.4036 0034760 355.1745   4.9130 14.77381030688636
YAOGAN 4                
1 33446U 08061A   21171.32535834  .00000040  00000-0  12732-4 0  9993
2 33446  97.7756 118.5158 0015165 224.0314 135.9690 14.77100404676130
DEIMOS-1                
1 35681U 09041A   21169.50909060  .00000022  00000-0  10936-4 0  9992
2 35681  97.7593  33.3364 0001164  23.9369 336.1903 14.71897028638235
UK-DMC 2                
1 35683U 09041C   21169.50321992  .00000107  00000-0  24706-4 0  9990
2 35683  97.6862 357.7598 0001609  72.0039 288.1356 14.71212800638002
RISAT 1                 
1 38248U 12017A   21171.29302805  .00000536  00000-0  36368-4 0  9991
2 38248  97.5595 182.0087 0005700  71.1203 289.0644 15.10525373504159
DMC3-FM1                
1 40715U 15032A   21169.55985409  .00000039  00000-0  13575-4 0  9999
2 40715  97.8929  60.2744 0016640 125.2089 235.0680 14.73707574319574
DMC3-FM2                
1 40716U 15032B   21169.51470226  .00000040  00000-0  13687-4 0  9998
2 40716  97.8960  60.7132 0013661 132.3630 227.8733 14.73680528319574
DMC3-FM3                
1 40717U 15032C   21169.53661680  .00000168  00000-0  33189-4 0  9997
2 40717  97.8962  61.5291 0017438 127.3312 232.9480 14.73669356319571
